CTC1_L_00508001-01
1 44830U 25756MX  26037.47807870  .00000000  00000+0  00000-0 0  9992
2 44830  97.4000   0.0000 0000000   0.0000   0.0000 15.10393143    12
CTC1_L_00508001-02
1 44831U 24889LL  26037.47807870  .00000000  00000+0  00000-0 0  9999
2 44831  97.4000   0.0000 0000000   0.0000 180.0000 15.10393143    12
CTC1_L_00508002-01
1 44832U 25227QO  26037.47807870  .00000000  00000+0  00000-0 0  9997
2 44832  97.4000  12.0000 0000000   0.0000  24.0000 15.10393143    13
CTC1_L_00508002-02
1 44833U 26432HH  26037.47807870  .00000000  00000+0  00000-0 0  9997
2 44833  97.4000  12.0000 0000000   0.0000 204.0000 15.10393143    14
CTC1_L_00508003-01
1 44834U 25311EK  26037.47807870  .00000000  00000+0  00000-0 0  9993
2 44834  97.4000  24.0000 0000000   0.0000  48.0000 15.10393143    14
CTC1_L_00508003-02
1 44835U 26360VL  26037.47807870  .00000000  00000+0  00000-0 0  9999
2 44835  97.4000  24.0000 0000000   0.0000 228.0000 15.10393143    15
CTC1_L_00508004-01
1 44836U 25148JK  26037.47807870  .00000000  00000+0  00000-0 0  9993
2 44836  97.4000  36.0000 0000000   0.0000  72.0000 15.10393143    16
CTC1_L_00508004-02
1 44837U 23503YL  26037.47807870  .00000000  00000+0  00000-0 0  9997
2 44837  97.4000  36.0000 0000000   0.0000 252.0000 15.10393143    17
CTC1_L_00508005-01
1 44838U 25227LP  26037.47807870  .00000000  00000+0  00000-0 0  9993
2 44838  97.4000  48.0000 0000000   0.0000  96.0000 15.10393143    17
CTC1_L_00508005-02
1 44839U 23432JG  26037.47807870  .00000000  00000+0  00000-0 0  9990
2 44839  97.4000  48.0000 0000000   0.0000 276.0000 15.10393143    18
CTC1_L_00508006-01
1 44840U 22482QI  26037.47807870  .00000000  00000+0  00000-0 0  9996
2 44840  97.4000  60.0000 0000000   0.0000 120.0000 15.10393143    12
CTC1_L_00508006-02
1 44841U 25549AZ  26037.47807870  .00000000  00000+0  00000-0 0  9994
2 44841  97.4000  60.0000 0000000   0.0000 300.0000 15.10393143    13
CTC1_L_00508007-01
1 44842U 25259KP  26037.47807870  .00000000  00000+0  00000-0 0  9993
2 44842  97.4000  72.0000 0000000   0.0000 144.0000 15.10393143    13
CTC1_L_00508007-02
1 44843U 23563YP  26037.47807870  .00000000  00000+0  00000-0 0  9990
2 44843  97.4000  72.0000 0000000   0.0000 324.0000 15.10393143    14
CTC1_L_00508008-01
1 44844U 25547RL  26037.47807870  .00000000  00000+0  00000-0 0  9995
2 44844  97.4000  84.0000 0000000   0.0000 168.0000 15.10393143    14
CTC1_L_00508008-02
1 44845U 22080AL  26037.47807870  .00000000  00000+0  00000-0 0  9995
2 44845  97.4000  84.0000 0000000   0.0000 348.0000 15.10393143    15
CTC1_L_00508009-01
1 44846U 24226BS  26037.47807870  .00000000  00000+0  00000-0 0  9990
2 44846  97.4000  96.0000 0000000   0.0000 192.0000 15.10393143    16
CTC1_L_00508009-02
1 44847U 24594YD  26037.47807870  .00000000  00000+0  00000-0 0  9999
2 44847  97.4000  96.0000 0000000   0.0000  12.0000 15.10393143    18
CTC1_L_00508010-01
1 44848U 24278IK  26037.47807870  .00000000  00000+0  00000-0 0  9999
2 44848  97.4000 108.0000 0000000   0.0000 216.0000 15.10393143    19
CTC1_L_00508010-02
1 44849U 26798DS  26037.47807870  .00000000  00000+0  00000-0 0  9999
2 44849  97.4000 108.0000 0000000   0.0000  36.0000 15.10393143    10
CTC1_L_00508011-01
1 44850U 24036MI  26037.47807870  .00000000  00000+0  00000-0 0  9994
2 44850  97.4000 120.0000 0000000   0.0000 240.0000 15.10393143    13
CTC1_L_00508011-02
1 44851U 24876FP  26037.47807870  .00000000  00000+0  00000-0 0  9997
2 44851  97.4000 120.0000 0000000   0.0000  60.0000 15.10393143    14
CTC1_L_00508012-01
1 44852U 23304MD  26037.47807870  .00000000  00000+0  00000-0 0  9993
2 44852  97.4000 132.0000 0000000   0.0000 264.0000 15.10393143    14
CTC1_L_00508012-02
1 44853U 23385DY  26037.47807870  .00000000  00000+0  00000-0 0  9993
2 44853  97.4000 132.0000 0000000   0.0000  84.0000 15.10393143    15
CTC1_L_00508013-01
1 44854U 23699EB  26037.47807870  .00000000  00000+0  00000-0 0  9992
2 44854  97.4000 144.0000 0000000   0.0000 288.0000 15.10393143    15
CTC1_L_00508013-02
1 44855U 26891LS  26037.47807870  .00000000  00000+0  00000-0 0  9990
2 44855  97.4000 144.0000 0000000   0.0000 108.0000 15.10393143    17
CTC1_L_00508014-01
1 44856U 25432AI  26037.47807870  .00000000  00000+0  00000-0 0  9991
2 44856  97.4000 156.0000 0000000   0.0000 312.0000 15.10393143    18
CTC1_L_00508014-02
1 44857U 24110FK  26037.47807870  .00000000  00000+0  00000-0 0  9994
2 44857  97.4000 156.0000 0000000   0.0000 132.0000 15.10393143    19
CTC1_L_00508015-01
1 44858U 22755WQ  26037.47807870  .00000000  00000+0  00000-0 0  9998
2 44858  97.4000 168.0000 0000000   0.0000 336.0000 15.10393143    19
CTC1_L_00508015-02
1 44859U 23696ZB  26037.47807870  .00000000  00000+0  00000-0 0  9994
2 44859  97.4000 168.0000 0000000   0.0000 156.0000 15.10393143    10
CTC1_L_00508016-01
1 44860U 26427DG  26037.47807870  .00000000  00000+0  00000-0 0  9991
2 44860  97.4000 180.0000 0000000   0.0000   0.0000 15.10393143    14
CTC1_L_00508016-02
1 44861U 24577YQ  26037.47807870  .00000000  00000+0  00000-0 0  9996
2 44861  97.4000 180.0000 0000000   0.0000 180.0000 15.10393143    14
CTC1_L_00508017-01
1 44862U 22094VB  26037.47807870  .00000000  00000+0  00000-0 0  9999
2 44862  97.4000 192.0000 0000000   0.0000  24.0000 15.10393143    15
CTC1_L_00508017-02
1 44863U 26708GS  26037.47807870  .00000000  00000+0  00000-0 0  9996
2 44863  97.4000 192.0000 0000000   0.0000 204.0000 15.10393143    16
CTC1_L_00508018-01
1 44864U 22771RW  26037.47807870  .00000000  00000+0  00000-0 0  9993
2 44864  97.4000 204.0000 0000000   0.0000  48.0000 15.10393143    17
CTC1_L_00508018-02
1 44865U 23451WC  26037.47807870  .00000000  00000+0  00000-0 0  9990
2 44865  97.4000 204.0000 0000000   0.0000 228.0000 15.10393143    18
CTC1_L_00508019-01
1 44866U 23390DR  26037.47807870  .00000000  00000+0  00000-0 0  9993
2 44866  97.4000 216.0000 0000000   0.0000  72.0000 15.10393143    19
CTC1_L_00508019-02
1 44867U 25475WN  26037.47807870  .00000000  00000+0  00000-0 0  9990
2 44867  97.4000 216.0000 0000000   0.0000 252.0000 15.10393143    10
CTC1_L_00508020-01
1 44868U 22905TK  26037.47807870  .00000000  00000+0  00000-0 0  9996
2 44868  97.4000 228.0000 0000000   0.0000  96.0000 15.10393143    10
CTC1_L_00508020-02
1 44869U 26633ZZ  26037.47807870  .00000000  00000+0  00000-0 0  9999
2 44869  97.4000 228.0000 0000000   0.0000 276.0000 15.10393143    11
CTC1_L_00508021-01
1 44870U 26919RO  26037.47807870  .00000000  00000+0  00000-0 0  9998
2 44870  97.4000 240.0000 0000000   0.0000 120.0000 15.10393143    15
CTC1_L_00508021-02
1 44871U 24074HP  26037.47807870  .00000000  00000+0  00000-0 0  9999
2 44871  97.4000 240.0000 0000000   0.0000 300.0000 15.10393143    16
CTC1_L_00508022-01
1 44872U 24498VI  26037.47807870  .00000000  00000+0  00000-0 0  9990
2 44872  97.4000 252.0000 0000000   0.0000 144.0000 15.10393143    16
CTC1_L_00508022-02
1 44873U 22092BQ  26037.47807870  .00000000  00000+0  00000-0 0  9999
2 44873  97.4000 252.0000 0000000   0.0000 324.0000 15.10393143    17
CTC1_L_00508023-01
1 44874U 23372HO  26037.47807870  .00000000  00000+0  00000-0 0  9992
2 44874  97.4000 264.0000 0000000   0.0000 168.0000 15.10393143    17
CTC1_L_00508023-02
1 44875U 26668AN  26037.47807870  .00000000  00000+0  00000-0 0  9994
2 44875  97.4000 264.0000 0000000   0.0000 348.0000 15.10393143    18
CTC1_L_00508024-01
1 44876U 22972SC  26037.47807870  .00000000  00000+0  00000-0 0  9999
2 44876  97.4000 276.0000 0000000   0.0000 192.0000 15.10393143    19
CTC1_L_00508024-02
1 44877U 22609TJ  26037.47807870  .00000000  00000+0  00000-0 0  9997
2 44877  97.4000 276.0000 0000000   0.0000  12.0000 15.10393143    11
CTC1_L_00508025-01
1 44878U 26388EF  26037.47807870  .00000000  00000+0  00000-0 0  9996
2 44878  97.4000 288.0000 0000000   0.0000 216.0000 15.10393143    11
CTC1_L_00508025-02
1 44879U 26126NS  26037.47807870  .00000000  00000+0  00000-0 0  9997
2 44879  97.4000 288.0000 0000000   0.0000  36.0000 15.10393143    12
CTC1_L_00508026-01
1 44880U 26332SX  26037.47807870  .00000000  00000+0  00000-0 0  9998
2 44880  97.4000 300.0000 0000000   0.0000 240.0000 15.10393143    16
CTC1_L_00508026-02
1 44881U 22446XO  26037.47807870  .00000000  00000+0  00000-0 0  9991
2 44881  97.4000 300.0000 0000000   0.0000  60.0000 15.10393143    17
CTC1_L_00508027-01
1 44882U 22039UU  26037.47807870  .00000000  00000+0  00000-0 0  9990
2 44882  97.4000 312.0000 0000000   0.0000 264.0000 15.10393143    17
CTC1_L_00508027-02
1 44883U 23150BJ  26037.47807870  .00000000  00000+0  00000-0 0  9996
2 44883  97.4000 312.0000 0000000   0.0000  84.0000 15.10393143    18
CTC1_L_00508028-01
1 44884U 24020VL  26037.47807870  .00000000  00000+0  00000-0 0  9994
2 44884  97.4000 324.0000 0000000   0.0000 288.0000 15.10393143    18
CTC1_L_00508028-02
1 44885U 26594FG  26037.47807870  .00000000  00000+0  00000-0 0  9993
2 44885  97.4000 324.0000 0000000   0.0000 108.0000 15.10393143    10
CTC1_L_00508029-01
1 44886U 25578PR  26037.47807870  .00000000  00000+0  00000-0 0  9995
2 44886  97.4000 336.0000 0000000   0.0000 312.0000 15.10393143    11
CTC1_L_00508029-02
1 44887U 23808CD  26037.47807870  .00000000  00000+0  00000-0 0  9990
2 44887  97.4000 336.0000 0000000   0.0000 132.0000 15.10393143    12
CTC1_L_00508030-01
1 44888U 24560KQ  26037.47807870  .00000000  00000+0  00000-0 0  9997
2 44888  97.4000 348.0000 0000000   0.0000 336.0000 15.10393143    12
CTC1_L_00508030-02
1 44889U 22503DE  26037.47807870  .00000000  00000+0  00000-0 0  9993
2 44889  97.4000 348.0000 0000000   0.0000 156.0000 15.10393143    13
